     2.100          NAVIGATION                              RINEX VERSION / TYPE
fic2rin                                 03/27/2017 00:04:03 PGM / RUN BY / DATE
                                                            END OF HEADER
12 17  3 26 10  0  0.0  .386477913707D-03 -.568434188608D-12  .000000000000D+00
     .900000000000D+01 -.218750000000D+00  .340335604915D-08 -.203665680037D+01
     .558793544769D-08  .659876212012D-02  .138934701681D-04  .515356966591D+04
     .360000000000D+05  .149011611938D-07  .285328971451D+01 -.117346644402D-06
     .989811544230D+00  .125687500000D+03  .816195943437D+00 -.737459289568D-08
    -.775032283206D-10  .100000000000D+01  .194200000000D+04  .000000000000D+00
     .240000000000D+01  .000000000000D+00 -.121071934700D-07  .900000000000D+01
     .288060000000D+05  .400000000000D+01
13 17  3 26 10  0  0.0 -.754198990762D-04 -.159161572810D-11  .000000000000D+00
     .120000000000D+02  .642812500000D+02  .472091093060D-08 -.408469285928D+00
     .347755849361D-05  .397793145385D-02  .637955963612D-05  .515368274689D+04
     .360000000000D+05  .000000000000D+00  .816726905165D+00 -.372529029846D-07
     .969915281962D+00  .259375000000D+03  .184440361886D+01 -.832284667997D-08
     .442161274935D-09  .100000000000D+01  .194200000000D+04  .000000000000D+00
     .240000000000D+01  .000000000000D+00 -.111758708954D-07  .120000000000D+02
     .288060000000D+05  .400000000000D+01
14 17  3 26 10  0  0.0 -.643366947770D-04 -.159161572810D-11  .000000000000D+00
     .390000000000D+02  .703125000000D+02  .480770026001D-08  .955984351968D+00
     .371597707272D-05  .882785557769D-02  .677257776260D-05  .515363562584D+04
     .360000000000D+05 -.149011611938D-06  .777683848191D+00  .912696123123D-07
     .962465937792D+00  .253312500000D+03 -.196094634689D+01 -.846999566646D-08
     .353228999120D-09  .100000000000D+01  .194200000000D+04  .000000000000D+00
     .240000000000D+01  .000000000000D+00 -.931322574615D-08  .390000000000D+02
     .288060000000D+05  .400000000000D+01
17 17  3 26 10  0  0.0 -.186555553228D-03  .147792889038D-11  .000000000000D+00
     .560000000000D+02  .890937500000D+02  .439161149968D-08  .125472839631D+01
     .458024442196D-05  .116410533665D-01  .580772757530D-05  .515359762764D+04
     .360000000000D+05 -.230967998505D-06 -.239348322166D+01 -.104308128357D-06
     .979361193319D+00  .275156250000D+03 -.185239299192D+01 -.833570435840D-08
     .552165857067D-09  .100000000000D+01  .194200000000D+04  .000000000000D+00
     .240000000000D+01  .000000000000D+00 -.107102096081D-07  .560000000000D+02
     .288060000000D+05  .400000000000D+01
18 17  3 26 10  0  0.0  .606863293797D-03  .227373675443D-11  .000000000000D+00
     .420000000000D+02 -.700312500000D+02  .502199490053D-08  .277065648837D+01
    -.357441604137D-05  .178444084013D-01  .123996287584D-04  .515375832176D+04
     .360000000000D+05  .167638063431D-06 -.388496390160D+00 -.210478901863D-06
     .925894697425D+00  .117781250000D+03 -.182162977186D+01 -.792854454142D-08
    -.183579075377D-09  .100000000000D+01  .194200000000D+04  .000000000000D+00
     .240000000000D+01  .000000000000D+00 -.111758708954D-07  .420000000000D+02
     .288060000000D+05  .400000000000D+01
19 17  3 26 10  0  0.0 -.509256497025D-03  .125055521494D-11  .000000000000D+00
     .330000000000D+02  .889062500000D+02  .443375611231D-08 -.188526582617D+01
     .453554093838D-05  .102031698916D-01  .463612377644D-05  .515365401840D+04
     .360000000000D+05  .139698386192D-06 -.234549203315D+01 -.819563865662D-07
     .976557411342D+00  .291156250000D+03  .934898536882D+00 -.812533845296D-08
     .663599070136D-09  .100000000000D+01  .194200000000D+04  .000000000000D+00
     .240000000000D+01  .000000000000D+00 -.153668224812D-07  .330000000000D+02
     .288060000000D+05  .400000000000D+01
20 17  3 26 10  0  0.0  .465658493340D-03  .159161572810D-11  .000000000000D+00
     .980000000000D+02 -.706250000000D+02  .514342853016D-08  .396851154809D+00
    -.350549817085D-05  .445127219427D-02  .126902014017D-04  .515365858459D+04
     .360000000000D+05 -.465661287308D-07 -.439901716404D+00 -.745058059692D-08
     .927202968971D+00  .119531250000D+03  .157542961510D+01 -.837677749783D-08
    -.182150444440D-09  .100000000000D+01  .194200000000D+04  .000000000000D+00
     .240000000000D+01  .000000000000D+00 -.838190317154D-08  .980000000000D+02
     .288060000000D+05  .400000000000D+01
21 17  3 26 10  0  0.0 -.515557825565D-03  .181898940355D-11  .000000000000D+00
     .490000000000D+02 -.757187500000D+02  .532665044780D-08 -.261098999140D+01
    -.397861003876D-05  .240178977838D-01  .198744237423D-05  .515371438980D+04
     .360000000000D+05  .361353158951D-06 -.142944383208D+01  .130385160446D-06
     .938751762162D+00  .320906250000D+03 -.169229292846D+01 -.839249243814D-08
    -.539308178636D-10  .100000000000D+01  .194200000000D+04  .000000000000D+00
     .240000000000D+01  .000000000000D+00 -.977888703346D-08  .490000000000D+02
     .288060000000D+05  .400000000000D+01
22 17  3 26 10  0  0.0  .613136216998D-04 -.118234311230D-10  .000000000000D+00
     .450000000000D+02 -.396875000000D+02  .531986445085D-08  .789348639082D+00
    -.201538205147D-05  .752964499407D-02  .128149986267D-04  .515356238747D+04
     .360000000000D+05 -.104308128357D-06 -.388509275542D+00 -.186264514923D-07
     .923909106511D+00  .119062500000D+03 -.178227533277D+01 -.846070956537D-08
    -.145006040084D-09  .100000000000D+01  .194200000000D+04  .000000000000D+00
     .240000000000D+01  .000000000000D+00 -.176951289177D-07  .450000000000D+02
     .288060000000D+05  .400000000000D+01
24 17  3 26 10  0  0.0 -.324412249029D-04 -.568434188608D-12  .000000000000D+00
     .690000000000D+02 -.471250000000D+02  .531807866218D-08 -.633210137298D+00
    -.253692269325D-05  .562581873965D-02  .410526990891D-05  .515369028091D+04
     .360000000000D+05  .139698386192D-06  .171806086553D+01  .800937414169D-07
     .945656928601D+00  .291781250000D+03  .479327996472D+00 -.870607692876D-08
    -.485020203038D-09  .100000000000D+01  .194200000000D+04  .000000000000D+00
     .240000000000D+01  .000000000000D+00  .232830643654D-08  .690000000000D+02
     .288060000000D+05  .400000000000D+01
25 17  3 26 10  0  0.0 -.358880963176D-03 -.670752342558D-11  .000000000000D+00
     .400000000000D+02 -.124375000000D+02  .367872466222D-08 -.259235283493D+01
    -.614672899246D-06  .637289544102D-02  .133067369461D-04  .515361978722D+04
     .360000000000D+05 -.335276126862D-07  .279879888923D+01 -.186264514923D-07
     .977752027319D+00  .131875000000D+03  .774113246981D+00 -.749602652531D-08
    -.109647424398D-09  .100000000000D+01  .194200000000D+04  .000000000000D+00
     .240000000000D+01  .000000000000D+00  .558793544769D-08  .400000000000D+02
     .288060000000D+05  .400000000000D+01
26 17  3 26 10  0  0.0 -.517083331943D-03  .170530256582D-11  .000000000000D+00
     .470000000000D+02 -.409375000000D+01  .412910056504D-08 -.313401746774D+01
    -.130385160446D-06  .180000613909D-02  .125300139189D-04  .515368499947D+04
     .360000000000D+05  .391155481339D-07  .278448788434D+01  .931322574615D-08
     .959542136553D+00  .139437500000D+03  .169674285901D-01 -.784818405122D-08
    -.149649090628D-09  .100000000000D+01  .194200000000D+04  .000000000000D+00
     .240000000000D+01  .000000000000D+00  .698491930962D-08  .470000000000D+02
     .288060000000D+05  .400000000000D+01
27 17  3 26 10  0  0.0  .230248551816D-03  .625277607469D-11  .000000000000D+00
     .450000000000D+02  .954687500000D+02  .436446751188D-08  .138650077156D+01
     .490248203278D-05  .459523417521D-02  .618025660515D-05  .515366266823D+04
     .360000000000D+05  .279396772385D-07 -.244510652708D+01  .931322574615D-07
     .974309288075D+00  .266218750000D+03  .297994731854D+00 -.821498504424D-08
     .467162316328D-09  .100000000000D+01  .194200000000D+04  .000000000000D+00
     .240000000000D+01  .000000000000D+00  .186264514923D-08  .450000000000D+02
     .288060000000D+05  .400000000000D+01
28 17  3 26 10  0  0.0  .599919818342D-03  .284217094304D-11  .000000000000D+00
     .380000000000D+02  .165625000000D+02  .334442502301D-08  .216860655005D+01
     .847503542900D-06  .197975620395D-01  .138618052006D-04  .515365091133D+04
     .360000000000D+05  .331550836563D-06  .287675243062D+01 -.111758708954D-06
     .989081003902D+00  .121125000000D+03 -.157165173157D+01 -.714815489220D-08
    -.800033324599D-10  .100000000000D+01  .194200000000D+04  .000000000000D+00
     .240000000000D+01  .000000000000D+00 -.111758708954D-07  .380000000000D+02
     .288060000000D+05  .400000000000D+01
29 17  3 26 10  0  0.0  .617536716163D-03 -.284217094304D-11  .000000000000D+00
     .530000000000D+02  .899062500000D+02  .423410493889D-08 -.291414973255D+01
     .474601984024D-05  .706386519596D-03  .623613595963D-05  .515365257072D+04
     .360000000000D+05 -.391155481339D-07 -.238342194551D+01  .558793544769D-08
     .980443736606D+00  .269343750000D+03  .936890481249D-02 -.807855078978D-08
     .581095633537D-09  .100000000000D+01  .194200000000D+04  .000000000000D+00
     .240000000000D+01  .000000000000D+00 -.102445483208D-07  .530000000000D+02
     .288060000000D+05  .400000000000D+01
30 17  3 26 10  0  0.0  .159841496497D-03 -.454747350886D-12  .000000000000D+00
     .230000000000D+02 -.562500000000D+02  .506985403691D-08 -.142528154634D+01
    -.302307307720D-05  .255947001278D-02  .548362731934D-05  .515369262505D+04
     .360000000000D+05 -.428408384323D-07  .181031297992D+01 -.130385160446D-07
     .948376777117D+00  .267156250000D+03  .305174970194D+01 -.844749472921D-08
    -.504663878419D-09  .100000000000D+01  .194200000000D+04  .000000000000D+00
     .240000000000D+01  .000000000000D+00  .372529029846D-08  .230000000000D+02
     .288060000000D+05  .400000000000D+01
